ION SCV-004             
1 50993U 22002K   26068.68892644  .00006538  00000+0  23198-3 0  9998
2 50993  97.2961 128.2294 0007216   1.6783 358.4480 15.29369331230088
STARLINK-35608          
1 66508U 25263Z   26068.13895040  .00034248  00000+0  12487-2 0  9999
2 66508  43.0000 353.8938 0001155 287.9889  72.0837 15.27569338 18810
